NORAD_CAT_ID,OBJECT_NAME,OBJECT_TYPE,EPOCH,MEAN_MOTION,ECCENTRICITY,INCLINATION,RA_OF_ASC_NODE,ARG_OF_PERICENTER,MEAN_ANOMALY,BSTAR,MEAN_MOTION_DOT,MEAN_MOTION_DDOT,TLE_LINE0,TLE_LINE1,TLE_LINE2,SEMIMAJOR_AXIS,PERIOD,APOGEE,PERIGEE,DECAYED
50171.0,STARLINK-3286,PAYLOAD,2022-09-18 17:59:58,15.08841281,0.0001805,53.2181,181.1273,50.3204,309.7947,0.00015443,2.171e-05,0.0,0 STARLINK-3286,1 50171U 21125R   22261.74997915  .00002171  00000-0  15443-3 0  9990,2 50171  53.2181 181.1273 0001805  50.3204 309.7947 15.08841281 45182,6917.876,95.437,540.99,538.493,0.0
50171.0,STARLINK-3286,PAYLOAD,2022-09-19 03:32:17,15.08822157,0.0001862,53.2184,179.343,53.2694,306.8469,0.00034852,5.260000000000001e-05,0.0,0 STARLINK-3286,1 50171U 21125R   22262.14742543  .00005260  00000-0  34852-3 0  9997,2 50171  53.2184 179.3430 0001862  53.2694 306.8469 15.08822157 45242,6917.935,95.439,541.0880000000002,538.512,0.0
50171.0,STARLINK-3286,PAYLOAD,2022-09-20 03:23:04,15.08840102,0.0001792,53.2184,174.8829,61.5414,298.5758,1.2927e-05,-8.2e-07,0.0,0 STARLINK-3286,1 50171U 21125R   22263.14102496 -.00000082  00000-0  12927-4 0  9993,2 50171  53.2184 174.8829 0001792  61.5414 298.5758 15.08840102 44908,6917.88,95.438,540.985,538.505,0.0
50171.0,STARLINK-3286,PAYLOAD,2022-09-20 11:20:00,15.08840422,0.0001908,53.2182,173.3962,51.6813,308.435,-9.1442e-05,-1.743e-05,0.0,0 STARLINK-3286,1 50171U 21125R   22263.47222907 -.00001743  00000-0 -91442-4 0  9994,2 50171  53.2182 173.3962 0001908  51.6813 308.4350 15.08840422 45444,6917.879,95.438,541.064,538.424,0.0
50171.0,STARLINK-3286,PAYLOAD,2022-09-21 03:13:51,15.08846916,0.0001958,53.2181,170.4226,52.0986,308.0183,6.0154e-05,6.69e-06,0.0,0 STARLINK-3286,1 50171U 21125R   22264.13461904  .00000669  00000-0  60154-4 0  9990,2 50171  53.2181 170.4226 0001958  52.0986 308.0183 15.08846916 45540,6917.859,95.437,541.0790000000002,538.37,0.0
50171.0,STARLINK-3286,PAYLOAD,2022-09-22 03:04:38,15.08831007,0.0001817,53.2176,165.9615,45.6191,314.495,3.2659e-05,2.32e-06,0.0,0 STARLINK-3286,1 50171U 21125R   22265.12822766  .00000232  00000-0  32659-4 0  9992,2 50171  53.2176 165.9615 0001817  45.6191 314.4950 15.08831007 45206,6917.908,95.438,541.03,538.516,0.0
50171.0,STARLINK-3286,PAYLOAD,2022-09-22 11:01:34,15.08831685,0.0001727,53.2174,164.4758,46.2621,313.8514,3.8774e-05,3.29e-06,0.0,0 STARLINK-3286,1 50171U 21125R   22265.45942851  .00000329  00000-0  38774-4 0  9997,2 50171  53.2174 164.4758 0001727  46.2621 313.8514 15.08831685 45741,6917.906,95.438,540.966,538.576,0.0
50171.0,STARLINK-3286,PAYLOAD,2022-09-22 22:09:16,15.08849169,0.0002225,53.2181,162.393,57.9946,302.1262,-7.768e-05,-1.525e-05,0.0,0 STARLINK-3286,1 50171U 21125R   22265.92310272 -.00001525  00000-0 -77680-4 0  9995,2 50171  53.2181 162.3930 0002225  57.9946 302.1262 15.08849169 45816,6917.852,95.437,541.257,538.178,0.0
50171.0,STARLINK-3286,PAYLOAD,2022-09-23 02:55:26,15.08836413,0.0001811999999999,53.2177,161.5015,51.148,308.9673,-8.3705e-05,-1.62e-05,0.0,0 STARLINK-3286,1 50171U 21125R   22266.12183100 -.00001620  00000-0 -83705-4 0  9997,2 50171  53.2177 161.5015 0001812  51.1480 308.9673 15.08836413 45847,6917.891,95.438,541.01,538.503,0.0
50171.0,STARLINK-3286,PAYLOAD,2022-09-23 20:24:40,15.08831675,0.0001783,53.2179,158.2315,49.9281,310.1867,6.8005e-05,7.94e-06,0.0,0 STARLINK-3286,1 50171U 21125R   22266.85047030  .00000794  00000-0  68005-4 0  9993,2 50171  53.2179 158.2315 0001783  49.9281 310.1867 15.08831675 45469,6917.906,95.438,541.004,538.5369999999998,0.0
50171.0,STARLINK-3286,PAYLOAD,2022-09-23 23:35:26,15.08835824,0.0001879,53.2179,157.6372,51.9773,308.1389,0.0001115,1.487e-05,0.0,0 STARLINK-3286,1 50171U 21125R   22266.98294719  .00001487  00000-0  11150-3 0  9993,2 50171  53.2179 157.6372 0001879  51.9773 308.1389 15.08835824 45972,6917.893,95.438,541.058,538.4580000000002,0.0
50171.0,STARLINK-3286,PAYLOAD,2022-09-24 20:15:27,15.08842195,0.0001995,53.2179,153.7704,51.9646,308.1526,5.0396e-05,5.14e-06,0.0,0 STARLINK-3286,1 50171U 21125R   22267.84406688  .00000514  00000-0  50396-4 0  9995,2 50171  53.2179 153.7704 0001995  51.9646 308.1526 15.08842195 45619,6917.874,95.437,541.119,538.359,0.0
50171.0,STARLINK-3286,PAYLOAD,2022-09-25 08:58:32,15.08835422,0.0001885,53.2178,151.3918,48.9305,311.185,6.6053e-05,7.63e-06,0.0,0 STARLINK-3286,1 50171U 21125R   22268.37398986  .00000763  00000-0  66053-4 0  9998,2 50171  53.2178 151.3918 0001885  48.9305 311.1850 15.08835422 46187,6917.894,95.438,541.063,538.455,0.0
50171.0,STARLINK-3286,PAYLOAD,2022-09-26 08:49:20,15.08837958,0.0001886999999999,53.218,146.9318,53.006,307.1105,-8.9606e-06,-4.31e-06,0.0,0 STARLINK-3286,1 50171U 21125R   22269.36759442 -.00000431  00000-0 -89606-5 0  9990,2 50171  53.2180 146.9318 0001887  53.0060 307.1105 15.08837958 46332,6917.887,95.438,541.057,538.446,0.0
50171.0,STARLINK-3286,PAYLOAD,2022-09-27 00:43:12,15.0883103,0.0001881,53.2181,143.9586,54.5021,305.6146,-0.00013277,-2.4e-05,0.0,0 STARLINK-3286,1 50171U 21125R   22270.03000684 -.00002400  00000-0 -13277-3 0  9990,2 50171  53.2181 143.9586 0001881  54.5021 305.6146 15.08831030 46438,6917.908,95.438,541.0740000000002,538.472,0.0
50171.0,STARLINK-3286,PAYLOAD,2022-09-27 22:58:35,15.08839437,0.00016,53.218,139.7989,77.6843,282.4328,0.00012304,1.671e-05,0.0,0 STARLINK-3286,1 50171U 21125R   22270.95735528  .00001671  00000-0  12304-3 0  9990,2 50171  53.2180 139.7989 0001600  77.6843 282.4328 15.08839437 46088,6917.882,95.438,540.854,538.64,0.0
50171.0,STARLINK-3286,PAYLOAD,2022-09-28 08:30:53,15.08849304,0.0002046999999999,53.2182,138.011,50.94,309.1774,0.00020442,2.967e-05,0.0,0 STARLINK-3286,1 50171U 21125R   22271.35478778  .00002967  00000-0  20442-3 0  9997,2 50171  53.2182 138.0110 0002047  50.9400 309.1774 15.08849304 46634,6917.852,95.437,541.133,538.3009999999998,0.0
50171.0,STARLINK-3286,PAYLOAD,2022-09-29 00:24:45,15.08835921,0.0001905,53.2184,135.0352,48.2106,311.9048,-1.7287e-06,-3.16e-06,0.0,0 STARLINK-3286,1 50171U 21125R   22272.01719870 -.00000316  00000-0 -17287-5 0  9995,2 50171  53.2184 135.0352 0001905  48.2106 311.9048 15.08835921 46248,6917.893,95.438,541.076,538.44,0.0
50171.0,STARLINK-3286,PAYLOAD,2022-09-29 08:21:42,15.08825584,0.000192,53.2183,133.5498,54.0823,306.0347,-5.3302e-05,-1.136e-05,0.0,0 STARLINK-3286,1 50171U 21125R   22272.34840994 -.00001136  00000-0 -53302-4 0  9991,2 50171  53.2183 133.5498 0001920  54.0823 306.0347 15.08825584 46295,6917.924,95.438,541.118,538.461,0.0
50171.0,STARLINK-3286,PAYLOAD,2022-09-29 14:43:15,15.08834922,0.0001843,53.218,132.36,54.3566,305.7598,-0.0001605,-2.841e-05,0.0,0 STARLINK-3286,1 50171U 21125R   22272.61336991 -.00002841  00000-0 -16050-3 0  9990,2 50171  53.2180 132.3600 0001843  54.3566 305.7598 15.08834922 46824,6917.896,95.438,541.036,538.486,0.0
50171.0,STARLINK-3286,PAYLOAD,2022-09-29 17:54:01,15.08836657,0.0001818,53.2176,131.766,53.4184,306.6975,-0.00014593,-2.61e-05,0.0,0 STARLINK-3286,1 50171U 21125R   22272.74584841 -.00002610  00000-0 -14593-3 0  9997,2 50171  53.2176 131.7660 0001818  53.4184 306.6975 15.08836657 46350,6917.891,95.438,541.013,538.498,0.0
50171.0,STARLINK-3286,PAYLOAD,2022-09-29 21:04:47,15.08835958,0.0001898,53.2174,131.1716,52.7582,307.3583,-0.00014283,-2.56e-05,0.0,0 STARLINK-3286,1 50171U 21125R   22272.87832912 -.00002560  00000-0 -14283-3 0  9996,2 50171  53.2174 131.1716 0001898  52.7582 307.3583 15.08835958 46868,6917.893,95.438,541.071,538.445,0.0
50171.0,STARLINK-3286,PAYLOAD,2022-09-30 00:15:33,15.08838379,0.0001834,53.2179,130.5763,54.2157,305.9006,-0.00011552,-2.126e-05,0.0,0 STARLINK-3286,1 50171U 21125R   22273.01080682 -.00002126  00000-0 -11552-3 0  9996,2 50171  53.2179 130.5763 0001834  54.2157 305.9006 15.08838379 46889,6917.885,95.438,541.019,538.482,0.0
50171.0,STARLINK-3286,PAYLOAD,2022-09-30 14:34:01,15.08843362,0.0001811999999999,53.2178,127.8996,55.4599,304.6564,-4.075e-05,-9.37e-06,0.0,0 STARLINK-3286,1 50171U 21125R   22273.60696175 -.00000937  00000-0 -40750-4 0  9992,2 50171  53.2178 127.8996 0001812  55.4599 304.6564 15.08843362 46483,6917.87,95.437,540.989,538.482,0.0
50171.0,STARLINK-3286,PAYLOAD,2022-09-30 20:55:33,15.08848077,0.0001799,53.2177,126.7108,53.1016,307.014,1.6268e-05,-2.9e-07,0.0,0 STARLINK-3286,1 50171U 21125R   22273.87191682 -.00000029  00000-0  16268-4 0  9992,2 50171  53.2177 126.7108 0001799  53.1016 307.0140 15.08848077 47013,6917.856,95.437,540.965,538.476,0.0
50171.0,STARLINK-3286,PAYLOAD,2022-10-01 00:06:19,15.08842252,0.0001905,53.2177,126.1166,54.7936,305.3234,0.00018443,2.648e-05,0.0,0 STARLINK-3286,1 50171U 21125R   22274.00439620  .00002648  00000-0  18443-3 0  9999,2 50171  53.2177 126.1166 0001905  54.7936 305.3234 15.08842252 47034,6917.874,95.437,541.056,538.4209999999998,0.0
50171.0,STARLINK-3286,PAYLOAD,2022-10-01 19:10:57,15.0884563,0.0001891,53.2173,122.548,52.3241,307.7922,0.00015698,2.211e-05,0.0,0 STARLINK-3286,1 50171U 21125R   22274.79927773  .00002211  00000-0  15698-3 0  9991,2 50171  53.2173 122.5480 0001891  52.3241 307.7922 15.08845630 46667,6917.863,95.437,541.036,538.42,0.0
50171.0,STARLINK-3286,PAYLOAD,2022-10-01 20:46:21,15.08843812,0.0001885999999999,53.2167,122.2505,52.255,307.8613,0.00030219,4.525e-05,0.0,0 STARLINK-3286,1 50171U 21125R   22274.86552249  .00004525  00000-0  30219-3 0  9997,2 50171  53.2167 122.2505 0001886  52.2550 307.8613 15.08843812 47165,6917.869000000002,95.437,541.038,538.429,0.0
50171.0,STARLINK-3286,PAYLOAD,2022-10-01 23:57:07,15.08846668,0.0001893,53.2167,121.6554,50.9973,309.1188,0.00026903,3.997e-05,0.0,0 STARLINK-3286,1 50171U 21125R   22274.99800094  .00003997  00000-0  26903-3 0  9992,2 50171  53.2167 121.6554 0001893  50.9973 309.1188 15.08846668 47180,6917.86,95.437,541.035,538.415,0.0
